STARLINK-31163          
1 58807U 24012W   26082.31109867 -.00000760  00000+0 -18122-4 0  9992
2 58807  43.0015  87.9349 0000382 129.5438 230.5447 15.27574078123320
STARLINK-31174          
1 58808U 24012X   26082.44058884 -.00002136  00000+0 -68169-4 0  9994
2 58808  43.0004  87.1862 0000848 287.4209  72.6549 15.27567908123342
STARLINK-31169          
1 58809U 24012Y   26082.47785579 -.00000633  00000+0 -13503-4 0  9998
2 58809  43.0025  87.4617 0000905 254.0927 105.9825 15.27571847123342
STARLINK-31233          
1 58826U 24017A   26082.57997245  .00003064  00000+0  11553-3 0  9999
2 58826  53.1576 139.7511 0001088  97.8407 262.2717 15.30203395122303
STARLINK-31271          
1 58827U 24017B   26082.86762067  .00010722  00000+0  37344-3 0  9999
2 58827  53.1586 138.7029 0001328  83.7050 276.4102 15.30214612122223
STARLINK-31222          
1 58828U 24017C   26082.88016020 -.00000602  00000+0 -81987-5 0  9995
2 58828  53.1596 138.0668 0001011  87.4023 272.7094 15.30199178122236
STARLINK-31258          
1 58829U 24017D   26082.84756983 -.00001704  00000+0 -45431-4 0  9998
2 58829  53.1606 138.5703 0001233  74.1658 285.9478 15.30187277122225
STARLINK-31253          
1 58830U 24017E   26082.43668439  .00002118  00000+0  83639-4 0  9993
2 58830  53.1597 140.2754 0001317  89.4185 270.6967 15.30190263122165
STARLINK-31232          
1 58831U 24017F   26082.43246677 -.00000964  00000+0 -20446-4 0  9996
2 58831  53.1596 140.2469 0001303  75.6373 284.4773 15.30190569122166
STARLINK-31263          
1 58832U 24017G   26082.54205154  .00002336  00000+0  90903-4 0  9992
2 58832  53.1604 129.5650 0001092  79.6505 280.4619 15.30223028122437
STARLINK-31171          
1 58834U 24017J   26082.80798093  .00000177  00000+0  18093-4 0  9993
2 58834  53.1601 115.1855 0001118  90.4107 269.7022 15.30199844122540
STARLINK-31246          
1 58835U 24017K   26082.44617857  .00000896  00000+0  42383-4 0  9999
2 58835  53.1597 140.3322 0001174  81.0486 279.0648 15.30201191122167
STARLINK-31251          
1 58836U 24017L   26082.84545781  .00003217  00000+0  12070-3 0  9999
2 58836  53.1581 138.5564 0001227  99.5867 260.5273 15.30195524122334
STARLINK-31249          
1 58838U 24017N   26082.85178462 -.00000249  00000+0  37266-5 0  9999
2 58838  53.1594 138.5973 0001632  88.0828 272.0359 15.30199689122221
STARLINK-31250          
1 58839U 24017P   26082.81915714  .00000832  00000+0  40221-4 0  9996
2 58839  53.1599 128.4501 0000972  89.3135 270.7978 15.30201800122314
STARLINK-31248          
1 58840U 24017Q   26082.89338407 -.00001547  00000+0 -40110-4 0  9997
2 58840  53.1606 150.9066 0001924  98.8735 261.2483 15.30188776122165
