[{"OBJECT_NAME":"STARLINK-31163","OBJECT_ID":"2024-012W","EPOCH":"2026-03-23T07:27:58.925088","MEAN_MOTION":15.27574078,"ECCENTRICITY":3.82e-5,"INCLINATION":43.0015,"RA_OF_ASC_NODE":87.9349,"ARG_OF_PERICENTER":129.5438,"MEAN_ANOMALY":230.5447,"EPHEMERIS_TYPE":0,"CLASSIFICATION_TYPE":"U","NORAD_CAT_ID":58807,"ELEMENT_SET_NO":999,"REV_AT_EPOCH":12332,"BSTAR":-1.8122e-5,"MEAN_MOTION_DOT":-7.6e-6,"MEAN_MOTION_DDOT":0},{"OBJECT_NAME":"STARLINK-31174","OBJECT_ID":"2024-012X","EPOCH":"2026-03-23T10:34:26.875776","MEAN_MOTION":15.27567908,"ECCENTRICITY":8.489e-5,"INCLINATION":43.0004,"RA_OF_ASC_NODE":87.1862,"ARG_OF_PERICENTER":287.4209,"MEAN_ANOMALY":72.6549,"EPHEMERIS_TYPE":0,"CLASSIFICATION_TYPE":"U","NORAD_CAT_ID":58808,"ELEMENT_SET_NO":999,"REV_AT_EPOCH":12334,"BSTAR":-6.8169192e-5,"MEAN_MOTION_DOT":-2.136e-5,"MEAN_MOTION_DDOT":0},{"OBJECT_NAME":"STARLINK-31169","OBJECT_ID":"2024-012Y","EPOCH":"2026-03-23T11:28:06.740256","MEAN_MOTION":15.27571847,"ECCENTRICITY":9.058e-5,"INCLINATION":43.0025,"RA_OF_ASC_NODE":87.4617,"ARG_OF_PERICENTER":254.0927,"MEAN_ANOMALY":105.9825,"EPHEMERIS_TYPE":0,"CLASSIFICATION_TYPE":"U","NORAD_CAT_ID":58809,"ELEMENT_SET_NO":999,"REV_AT_EPOCH":12334,"BSTAR":-1.3502942e-5,"MEAN_MOTION_DOT":-6.33e-6,"MEAN_MOTION_DDOT":0},{"OBJECT_NAME":"STARLINK-31233","OBJECT_ID":"2024-017A","EPOCH":"2026-03-23T13:55:09.619680","MEAN_MOTION":15.30203395,"ECCENTRICITY":0.00010883,"INCLINATION":53.1576,"RA_OF_ASC_NODE":139.7511,"ARG_OF_PERICENTER":97.8407,"MEAN_ANOMALY":262.2717,"EPHEMERIS_TYPE":0,"CLASSIFICATION_TYPE":"U","NORAD_CAT_ID":58826,"ELEMENT_SET_NO":999,"REV_AT_EPOCH":12230,"BSTAR":0.00011553145,"MEAN_MOTION_DOT":3.064e-5,"MEAN_MOTION_DDOT":0},{"OBJECT_NAME":"STARLINK-31271","OBJECT_ID":"2024-017B","EPOCH":"2026-03-23T20:49:22.425888","MEAN_MOTION":15.30214612,"ECCENTRICITY":0.00013287,"INCLINATION":53.1586,"RA_OF_ASC_NODE":138.7029,"ARG_OF_PERICENTER":83.705,"MEAN_ANOMALY":276.4102,"EPHEMERIS_TYPE":0,"CLASSIFICATION_TYPE":"U","NORAD_CAT_ID":58827,"ELEMENT_SET_NO":999,"REV_AT_EPOCH":12222,"BSTAR":0.00037344173,"MEAN_MOTION_DOT":0.00010722,"MEAN_MOTION_DDOT":0},{"OBJECT_NAME":"STARLINK-31222","OBJECT_ID":"2024-017C","EPOCH":"2026-03-23T21:07:25.841280","MEAN_MOTION":15.30199178,"ECCENTRICITY":0.00010117,"INCLINATION":53.1596,"RA_OF_ASC_NODE":138.0668,"ARG_OF_PERICENTER":87.4023,"MEAN_ANOMALY":272.7094,"EPHEMERIS_TYPE":0,"CLASSIFICATION_TYPE":"U","NORAD_CAT_ID":58828,"ELEMENT_SET_NO":999,"REV_AT_EPOCH":12223,"BSTAR":-8.198693e-6,"MEAN_MOTION_DOT":-6.02e-6,"MEAN_MOTION_DDOT":0},{"OBJECT_NAME":"STARLINK-31258","OBJECT_ID":"2024-017D","EPOCH":"2026-03-23T20:20:30.033312","MEAN_MOTION":15.30187277,"ECCENTRICITY":0.00012335,"INCLINATION":53.1606,"RA_OF_ASC_NODE":138.5703,"ARG_OF_PERICENTER":74.1658,"MEAN_ANOMALY":285.9478,"EPHEMERIS_TYPE":0,"CLASSIFICATION_TYPE":"U","NORAD_CAT_ID":58829,"ELEMENT_SET_NO":999,"REV_AT_EPOCH":12222,"BSTAR":-4.5430857e-5,"MEAN_MOTION_DOT":-1.704e-5,"MEAN_MOTION_DDOT":0},{"OBJECT_NAME":"STARLINK-31253","OBJECT_ID":"2024-017E","EPOCH":"2026-03-23T10:28:49.531296","MEAN_MOTION":15.30190263,"ECCENTRICITY":0.00013176,"INCLINATION":53.1597,"RA_OF_ASC_NODE":140.2754,"ARG_OF_PERICENTER":89.4185,"MEAN_ANOMALY":270.6967,"EPHEMERIS_TYPE":0,"CLASSIFICATION_TYPE":"U","NORAD_CAT_ID":58830,"ELEMENT_SET_NO":999,"REV_AT_EPOCH":12216,"BSTAR":8.3638899e-5,"MEAN_MOTION_DOT":2.118e-5,"MEAN_MOTION_DDOT":0},{"OBJECT_NAME":"STARLINK-31232","OBJECT_ID":"2024-017F","EPOCH":"2026-03-23T10:22:45.128928","MEAN_MOTION":15.30190569,"ECCENTRICITY":0.00013036,"INCLINATION":53.1596,"RA_OF_ASC_NODE":140.2469,"ARG_OF_PERICENTER":75.6373,"MEAN_ANOMALY":284.4773,"EPHEMERIS_TYPE":0,"CLASSIFICATION_TYPE":"U","NORAD_CAT_ID":58831,"ELEMENT_SET_NO":999,"REV_AT_EPOCH":12216,"BSTAR":-2.0445827e-5,"MEAN_MOTION_DOT":-9.64e-6,"MEAN_MOTION_DDOT":0},{"OBJECT_NAME":"STARLINK-31263","OBJECT_ID":"2024-017G","EPOCH":"2026-03-23T13:00:33.253056","MEAN_MOTION":15.30223028,"ECCENTRICITY":0.00010929,"INCLINATION":53.1604,"RA_OF_ASC_NODE":129.565,"ARG_OF_PERICENTER":79.6505,"MEAN_ANOMALY":280.4619,"EPHEMERIS_TYPE":0,"CLASSIFICATION_TYPE":"U","NORAD_CAT_ID":58832,"ELEMENT_SET_NO":999,"REV_AT_EPOCH":12243,"BSTAR":9.0903128e-5,"MEAN_MOTION_DOT":2.336e-5,"MEAN_MOTION_DDOT":0},{"OBJECT_NAME":"STARLINK-31171","OBJECT_ID":"2024-017J","EPOCH":"2026-03-23T19:23:29.552352","MEAN_MOTION":15.30199844,"ECCENTRICITY":0.00011188,"INCLINATION":53.1601,"RA_OF_ASC_NODE":115.1855,"ARG_OF_PERICENTER":90.4107,"MEAN_ANOMALY":269.7022,"EPHEMERIS_TYPE":0,"CLASSIFICATION_TYPE":"U","NORAD_CAT_ID":58834,"ELEMENT_SET_NO":999,"REV_AT_EPOCH":12254,"BSTAR":1.8092534e-5,"MEAN_MOTION_DOT":1.77e-6,"MEAN_MOTION_DDOT":0},{"OBJECT_NAME":"STARLINK-31246","OBJECT_ID":"2024-017K","EPOCH":"2026-03-23T10:42:29.828448","MEAN_MOTION":15.30201191,"ECCENTRICITY":0.00011745,"INCLINATION":53.1597,"RA_OF_ASC_NODE":140.3322,"ARG_OF_PERICENTER":81.0486,"MEAN_ANOMALY":279.0648,"EPHEMERIS_TYPE":0,"CLASSIFICATION_TYPE":"U","NORAD_CAT_ID":58835,"ELEMENT_SET_NO":999,"REV_AT_EPOCH":12216,"BSTAR":4.2382525e-5,"MEAN_MOTION_DOT":8.96e-6,"MEAN_MOTION_DDOT":0},{"OBJECT_NAME":"STARLINK-31251","OBJECT_ID":"2024-017L","EPOCH":"2026-03-23T20:17:27.554784","MEAN_MOTION":15.30195524,"ECCENTRICITY":0.00012274,"INCLINATION":53.1581,"RA_OF_ASC_NODE":138.5564,"ARG_OF_PERICENTER":99.5867,"MEAN_ANOMALY":260.5273,"EPHEMERIS_TYPE":0,"CLASSIFICATION_TYPE":"U","NORAD_CAT_ID":58836,"ELEMENT_SET_NO":999,"REV_AT_EPOCH":12233,"BSTAR":0.0001206953,"MEAN_MOTION_DOT":3.217e-5,"MEAN_MOTION_DDOT":0},{"OBJECT_NAME":"STARLINK-31249","OBJECT_ID":"2024-017N","EPOCH":"2026-03-23T20:26:34.191168","MEAN_MOTION":15.30199689,"ECCENTRICITY":0.00016327,"INCLINATION":53.1594,"RA_OF_ASC_NODE":138.5973,"ARG_OF_PERICENTER":88.0828,"MEAN_ANOMALY":272.0359,"EPHEMERIS_TYPE":0,"CLASSIFICATION_TYPE":"U","NORAD_CAT_ID":58838,"ELEMENT_SET_NO":999,"REV_AT_EPOCH":12222,"BSTAR":3.726614e-6,"MEAN_MOTION_DOT":-2.49e-6,"MEAN_MOTION_DDOT":0},{"OBJECT_NAME":"STARLINK-31250","OBJECT_ID":"2024-017P","EPOCH":"2026-03-23T19:39:35.176896","MEAN_MOTION":15.302018,"ECCENTRICITY":9.723e-5,"INCLINATION":53.1599,"RA_OF_ASC_NODE":128.4501,"ARG_OF_PERICENTER":89.3135,"MEAN_ANOMALY":270.7978,"EPHEMERIS_TYPE":0,"CLASSIFICATION_TYPE":"U","NORAD_CAT_ID":58839,"ELEMENT_SET_NO":999,"REV_AT_EPOCH":12231,"BSTAR":4.0220501e-5,"MEAN_MOTION_DOT":8.32e-6,"MEAN_MOTION_DDOT":0},{"OBJECT_NAME":"STARLINK-31248","OBJECT_ID":"2024-017Q","EPOCH":"2026-03-23T21:26:28.383648","MEAN_MOTION":15.30188776,"ECCENTRICITY":0.00019245,"INCLINATION":53.1606,"RA_OF_ASC_NODE":150.9066,"ARG_OF_PERICENTER":98.8735,"MEAN_ANOMALY":261.2483,"EPHEMERIS_TYPE":0,"CLASSIFICATION_TYPE":"U","NORAD_CAT_ID":58840,"ELEMENT_SET_NO":999,"REV_AT_EPOCH":12216,"BSTAR":-4.0110313e-5,"MEAN_MOTION_DOT":-1.547e-5,"MEAN_MOTION_DDOT":0}]
